{"version": 0.6, "generator": "Overpass API 0.7.55.4 3079d8ea", "osm3s": {"timestamp_osm_base": "2018-11-07T19:50:02Z", "copyright": "The data included in this document is from www.openstreetmap.org. The data is made available under ODbL."}, "elements": [{"type": "node", "id": 279266513, "lat": -31.4171159, "lon": -64.1934698}, {"type": "node", "id": 279379938, "lat": -31.4124858, "lon": -64.1918592}, {"type": "node", "id": 282805756, "lat": -31.4158308, "lon": -64.1973786}, {"type": "node", "id": 282809655, "lat": -31.4129055, "lon": -64.1918994}, {"type": "node", "id": 282810312, "lat": -31.4151075, "lon": -64.1956445}, {"type": "node", "id": 282810867, "lat": -31.4132028, "lon": -64.1934957}, {"type": "node", "id": 282810868, "lat": -31.4143456, "lon": -64.1939069}, {"type": "node", "id": 282810869, "lat": -31.4147305, "lon": -64.1925761}, {"type": "node", "id": 282813659, "lat": -31.4112115, "lon": -64.2002959}, {"type": "node", "id": 282814410, "lat": -31.40853, "lon": -64.2050768}, {"type": "node", "id": 282814536, "lat": -31.4124249, "lon": -64.1961525}, {"type": "node", "id": 282816250, "lat": -31.4113003, "lon": -64.195738}, {"type": "node", "id": 282816350, "lat": -31.4072837, "lon": -64.1913629, "tags": {"highway": "traffic_signals"}}, {"type": "node", "id": 284131950, "lat": -31.4089556, "lon": -64.1949038}, {"type": "node", "id": 284136052, "lat": -31.4100212, "lon": -64.1952874, "tags": {"highway": "traffic_signals"}}, {"type": "node", "id": 352932988, "lat": -31.4143034, "lon": -64.1982959}, {"type": "node", "id": 352932989, "lat": -31.4131858, "lon": -64.1979041}, {"type": "node", "id": 352932995, "lat": -31.4120304, "lon": -64.1974996}, {"type": "node", "id": 352933003, "lat": -31.410899, "lon": -64.1970882}, {"type": "node", "id": 352933004, "lat": -31.4095901, "lon": -64.1966247, "tags": {"highway": "traffic_signals"}}, {"type": "node", "id": 353179442, "lat": -31.4171213, "lon": -64.196341}, {"type": "node", "id": 353185244, "lat": -31.4111958, "lon": -64.1912827, "tags": {"highway": "traffic_signals"}}, {"type": "node", "id": 353185245, "lat": -31.4151397, "lon": -64.1911614}, {"type": "node", "id": 353409144, "lat": -31.4076947, "lon": -64.189995}, {"type": "node", "id": 353409148, "lat": -31.4089314, "lon": -64.1904423}, {"type": "node", "id": 353428241, "lat": -31.4179234, "lon": -64.1966489}, {"type": "node", "id": 353441049, "lat": -31.4135954, "lon": -64.1921552}, {"type": "node", "id": 353441058, "lat": -31.4155026, "lon": -64.1943455}, {"type": "node", "id": 353441067, "lat": -31.415906, "lon": -64.1930118}, {"type": "node", "id": 353443257, "lat": -31.4135762, "lon": -64.196567}, {"type": "node", "id": 353443258, "lat": -31.4147045, "lon": -64.1969734}, {"type": "node", "id": 353443259, "lat": -31.417548, "lon": -64.1979968}, {"type": "node", "id": 353443261, "lat": -31.4185807, "lon": -64.1983685}, {"type": "node", "id": 353449667, "lat": -31.4137514, "lon": -64.1916225}, {"type": "node", "id": 364173214, "lat": -31.4162434, "lon": -64.1960317}, {"type": "node", "id": 428468007, "lat": -31.4128211, "lon": -64.1947994}, {"type": "node", "id": 428468008, "lat": -31.4120982, "lon": -64.1930977}, {"type": "node", "id": 428468011, "lat": -31.4104253, "lon": -64.1939098, "tags": {"highway": "traffic_signals"}}, {"type": "node", "id": 428507407, "lat": -31.41162, "lon": -64.1989009}, {"type": "node", "id": 429232483, "lat": -31.4117806, "lon": -64.1916091}, {"type": "node", "id": 432597089, "lat": -31.409346, "lon": -64.1935089}, {"type": "node", "id": 432597090, "lat": -31.4081514, "lon": -64.1930653}, {"type": "node", "id": 432597092, "lat": -31.4097178, "lon": -64.19224}, {"type": "node", "id": 432597093, "lat": -31.4085218, "lon": -64.191809}, {"type": "node", "id": 442081673, "lat": -31.4127495, "lon": -64.1993122}, {"type": "node", "id": 442081674, "lat": -31.4108006, "lon": -64.1926303, "tags": {"highway": "traffic_signals"}}, {"type": "node", "id": 442081676, "lat": -31.4139688, "lon": -64.1952095}, {"type": "node", "id": 568812457, "lat": -31.4099426, "lon": -64.1953848}, {"type": "node", "id": 568812458, "lat": -31.4100309, "lon": -64.1954078}, {"type": "node", "id": 568812483, "lat": -31.409671, "lon": -64.1966537, "tags": {"highway": "traffic_signals"}}, {"type": "node", "id": 569714989, "lat": -31.4088521, "lon": -64.2038941}, {"type": "node", "id": 569714992, "lat": -31.4092614, "lon": -64.2025895}, {"type": "node", "id": 569714993, "lat": -31.4096625, "lon": -64.2012165}, {"type": "node", "id": 569714996, "lat": -31.4104721, "lon": -64.1984952}, {"type": "node", "id": 569714997, "lat": -31.4100749, "lon": -64.1998345}, {"type": "node", "id": 1162500966, "lat": -31.4141757, "lon": -64.1944942, "tags": {"highway": "bus_stop", "name": "27 de Abril 772", "network": "Coniferal", "ref": "C2.ida;C5.ida;C7.ida"}}, {"type": "node", "id": 1162500986, "lat": -31.4102683, "lon": -64.1944449, "tags": {"highway": "bus_stop", "name": "Colon 833", "network": "Coniferal", "ref": "C2.vuelta;C5.vuelta"}}, {"type": "node", "id": 1162501684, "lat": -31.4134046, "lon": -64.19716, "tags": {"highway": "bus_stop", "name": "27 de Abril 984", "network": "Coniferal", "ref": "C2.ida;C5.ida;C7.ida"}}, {"type": "node", "id": 1162522313, "lat": -31.4149621, "lon": -64.196124, "tags": {"highway": "bus_stop", "name": "Caseros 813", "network": "Coniferal;Tamse", "ref": "C7.vuelta;D3.ida", "ref_code": "C5477"}}, {"type": "node", "id": 1162523384, "lat": -31.4106195, "lon": -64.1932475, "tags": {"highway": "bus_stop", "name": "Colon 717", "network": "Coniferal", "ref": "C6.vuelta;N2.ida;N5.ida"}}, {"type": "node", "id": 1183719916, "lat": -31.4140521, "lon": -64.1937962, "tags": {"highway": "bus_stop", "name": "Corro 37", "network": "Coniferal", "ref": "N.ida;N1.vuelta;N5.vuelta;N8.ida;N8.vuelta"}}, {"type": "node", "id": 1183720662, "lat": -31.4107046, "lon": -64.1929572, "tags": {"highway": "bus_stop", "name": "Colon 731", "network": "Coniferal", "ref": "14.ida"}}, {"type": "node", "id": 1183721254, "lat": -31.4105039, "lon": -64.1936416, "tags": {"highway": "bus_stop", "name": "Colon 761", "network": "Coniferal", "ref": "N.vuelta;N1.ida;N11.ida;N3.vuelta"}}, {"type": "node", "id": 1183721518, "lat": -31.4123004, "lon": -64.1931706, "tags": {"highway": "bus_stop", "name": "Mariano Fragueiro 260", "network": "Coniferal;Tamse", "ref": "D1.ida;N.ida;N1.vuelta;N5.vuelta", "ref_code": "C7540"}}, {"type": "node", "id": 1277098863, "lat": -31.4138721, "lon": -64.1937284, "tags": {"highway": "bus_stop", "name": "Corro 40", "network": "Tamse", "ref": "V2.ida", "ref_code": "C7165"}}, {"type": "node", "id": 1277099092, "lat": -31.4142314, "lon": -64.1943017, "tags": {"highway": "bus_stop", "name": "27 de Abril 725", "network": "Tamse", "ref": "D4.vuelta", "ref_code": "C5193"}}, {"type": "node", "id": 1277099300, "lat": -31.4142496, "lon": -64.1942389, "tags": {"highway": "bus_stop", "name": "27 de Abril 720", "network": "Tamse", "ref": "D5.ida", "ref_code": "C7495"}}, {"type": "node", "id": 1277099960, "lat": -31.4129597, "lon": -64.1934081, "tags": {"highway": "bus_stop", "name": "Mariano Fragueiro 38", "network": "Tamse", "ref": "R8.vuelta;V1.ida", "ref_code": "C5866"}}, {"type": "node", "id": 1277100094, "lat": -31.4149424, "lon": -64.196189, "tags": {"highway": "bus_stop", "name": "Caseros 819", "network": "Tamse", "ref": "V1.ida;V2.ida;CV.ida;R8.vuelta", "ref_code": "C5374"}}, {"type": "node", "id": 1277101834, "lat": -31.4125253, "lon": -64.1976726, "tags": {"highway": "bus_stop", "name": "Rodr\u00edguez Pe\u00f1a 76", "network": "Tamse", "ref": "T.vuelta", "ref_code": "C5545"}}, {"type": "node", "id": 1277102654, "lat": -31.4137725, "lon": -64.1936909, "tags": {"highway": "bus_stop", "name": "Corro 49", "network": "Tamse", "ref": "D1.ida", "ref_code": "C7539"}}, {"type": "node", "id": 1277102759, "lat": -31.4104894, "lon": -64.193691, "tags": {"highway": "bus_stop", "name": "Avenida Col\u00f3n 767", "network": "Tamse Trole B Ida", "ref": "B.ida;D4.ida;D5.vuelta;D1.vuelta", "ref_code": "C6037"}}, {"type": "node", "id": 1277103534, "lat": -31.4142055, "lon": -64.1943914, "tags": {"highway": "bus_stop", "name": "27 de Abril 732", "network": "Tamse", "ref": "T.vuelta", "ref_code": "C5544"}}, {"type": "node", "id": 1277103718, "lat": -31.4142278, "lon": -64.1943144, "tags": {"highway": "bus_stop", "name": "27 de Abril 726", "network": "Tamse", "ref": "D3.vuelta", "ref_code": "C7106"}}, {"type": "node", "id": 1277104674, "lat": -31.4094936, "lon": -64.1951097, "tags": {"highway": "bus_stop", "name": "Nicol\u00e1s Avellaneda 251", "network": "Tamse Trole B Reg", "ref": "B.vuelta", "ref_code": "C7595"}}, {"type": "node", "id": 1277106679, "lat": -31.4128823, "lon": -64.1933802, "tags": {"highway": "bus_stop", "name": "Mariano Fragueiro 40", "network": "Tamse", "ref": "D3.ida", "ref_code": "C5479"}}, {"type": "node", "id": 1862497999, "lat": -31.4101406, "lon": -64.1908648}, {"type": "node", "id": 1862498006, "lat": -31.4132575, "lon": -64.1917829}, {"type": "node", "id": 1862498007, "lat": -31.4134819, "lon": -64.1917086}, {"type": "node", "id": 1867781406, "lat": -31.4125119, "lon": -64.1917849}, {"type": "node", "id": 1867781408, "lat": -31.4125481, "lon": -64.1916456}, {"type": "node", "id": 1869445761, "lat": -31.4194477, "lon": -64.1986806}, {"type": "node", "id": 1869446264, "lat": -31.4116961, "lon": -64.1943836}, {"type": "node", "id": 1869446622, "lat": -31.4168418, "lon": -64.1977425}, {"type": "node", "id": 2129924183, "lat": -31.4176574, "lon": -64.1980361}, {"type": "node", "id": 2733230658, "lat": -31.4145635, "lon": -64.1954364}, {"type": "node", "id": 2733230660, "lat": -31.4151162, "lon": -64.195616}, {"type": "node", "id": 2760033780, "lat": -31.4086742, "lon": -64.2045244}, {"type": "node", "id": 5224675502, "lat": -31.4165173, "lon": -64.196129}, {"type": "node", "id": 5747776045, "lat": -31.4126679, "lon": -64.1918793}, {"type": "node", "id": 5747776046, "lat": -31.4121991, "lon": -64.1917707}, {"type": "node", "id": 5747776048, "lat": -31.411587, "lon": -64.1915161}, {"type": "node", "id": 6007950477, "lat": -31.4145485, "lon": -64.1932055}, {"type": "way", "id": 25926035, "nodes": [282809655, 353441049, 282810869, 353441067, 279266513], "tags": {"highway": "residential", "lanes": "2", "name": "Arturo M. Bas", "oneway": "yes", "surface": "asphalt"}}, {"type": "way", "id": 25926036, "nodes": [428468007, 442081676, 2733230658, 282810312, 364173214, 5224675502, 353179442, 353428241], "tags": {"highway": "residential", "lanes": "2", "name": "General Jos\u00e9 Gervasio Artigas", "oneway": "yes", "surface": "concrete"}}, {"type": "way", "id": 25926066, "nodes": [282810868, 1183719916, 1277098863, 1277102654, 282810867], "tags": {"highway": "residential", "name": "Corro", "oneway": "yes", "surface": "asphalt"}}, {"type": "way", "id": 25926522, "nodes": [353409144, 353409148, 1862497999, 353185244, 5747776048, 429232483, 5747776046, 279379938, 5747776045, 282809655], "tags": {"highway": "primary", "lanes": "2", "name": "Avenida Figueroa Alcorta", "oneway": "yes", "surface": "concrete"}}, {"type": "way", "id": 30860503, "nodes": [284136052, 568812457, 352933004], "tags": {"highway": "secondary", "lanes": "2", "name": "Avenida Col\u00f3n", "oneway": "yes", "surface": "asphalt", "trolley_wire": "yes"}}, {"type": "way", "id": 31564137, "nodes": [279379938, 428468008, 1869446264, 282816250, 352933003, 569714996, 569714997, 569714993, 569714992, 569714989, 2760033780, 282814410], "tags": {"highway": "residential", "lanes": "2", "name": "9 de Julio", "oneway": "yes", "surface": "asphalt"}}, {"type": "way", "id": 31564140, "nodes": [353185245, 282810869, 6007950477, 282810868], "tags": {"highway": "residential", "lanes": "2", "name": "27 de Abril", "oneway": "yes", "surface": "concrete"}}, {"type": "way", "id": 36853625, "nodes": [282810867, 1277099960, 1277106679, 1183721518, 428468008, 442081674], "tags": {"highway": "residential", "lanes": "2", "name": "Fragueiro", "oneway": "yes", "surface": "asphalt"}}, {"type": "way", "id": 36853627, "nodes": [432597090, 432597089, 428468011, 1869446264, 428468007], "tags": {"highway": "residential", "lanes": "2", "name": "General Justo Jos\u00e9 de Urquiza", "oneway": "yes", "surface": "asphalt"}}, {"type": "way", "id": 79815938, "nodes": [284136052, 282816250, 282814536], "tags": {"highway": "residential", "lanes": "2", "name": "Avellaneda", "oneway": "yes", "surface": "asphalt"}}, {"type": "way", "id": 79815940, "nodes": [284131950, 1277104674, 284136052], "tags": {"highway": "secondary", "lanes": "4", "name": "Nicol\u00e1s Avellaneda", "oneway": "yes", "surface": "asphalt", "trolley_wire": "yes"}}, {"type": "way", "id": 102572218, "nodes": [282810868, 1277099300, 1277099092, 1277103718, 1277103534, 1162500966, 442081676, 353443257], "tags": {"highway": "residential", "name": "27 de Abril", "oneway": "yes", "surface": "concrete"}}, {"type": "way", "id": 122545197, "nodes": [352932988, 352932989], "tags": {"highway": "residential", "lanes": "2", "name": "Mariano Moreno", "oneway": "yes", "surface": "asphalt"}}, {"type": "way", "id": 138991698, "nodes": [284136052, 1162500986, 428468011], "tags": {"highway": "secondary", "lanes": "6", "maxspeed": "40", "name": "Avenida Col\u00f3n", "oneway": "yes", "source": "Comercio y Justicia", "surface": "asphalt", "trolley_wire": "yes"}}, {"type": "way", "id": 138991703, "nodes": [568812483, 568812458, 284136052], "tags": {"highway": "secondary", "lanes": "4", "name": "Avenida Col\u00f3n", "oneway": "yes", "source": "Comercio y Justicia", "surface": "asphalt", "trolley_wire": "yes"}}, {"type": "way", "id": 138991710, "nodes": [352932988, 353443258, 1277100094, 1162522313, 282810312, 2733230660, 353441058], "tags": {"highway": "residential", "lanes": "2", "name": "Caseros", "oneway": "yes", "surface": "asphalt"}}, {"type": "way", "id": 139189199, "nodes": [353441058, 282810868], "tags": {"highway": "residential", "name": "Corro", "oneway": "yes", "surface": "asphalt"}}, {"type": "way", "id": 140331246, "nodes": [352932989, 1277101834, 352932995], "tags": {"highway": "residential", "lanes": "2", "name": "Mariano Moreno", "oneway": "yes", "surface": "asphalt"}}, {"type": "way", "id": 140331250, "nodes": [352932995, 352933003, 568812483], "tags": {"highway": "residential", "lanes": "2", "name": "Rodriguez Pe\u00f1a", "oneway": "yes", "source": "Comercio y Justicia", "surface": "asphalt"}}, {"type": "way", "id": 140331257, "nodes": [352932989, 442081673], "tags": {"highway": "residential", "lanes": "2", "name": "27 de Abril", "oneway": "yes", "surface": "asphalt"}}, {"type": "way", "id": 140908248, "nodes": [442081674, 353185244], "tags": {"highway": "secondary", "lanes": "6", "motorcar:lanes:conditional": "|||no|no|no @ (Mo-Fr 08:00-22:00, PH off)", "name": "Avenida Col\u00f3n", "oneway": "yes", "psv:lanes": "no|no|no|designated|designated|designated", "source": "Comercio y Justicia", "surface": "asphalt", "trolley_wire": "yes"}}, {"type": "way", "id": 142382882, "nodes": [353443257, 1162501684, 352932989], "tags": {"highway": "residential", "lanes": "2", "name": "27 de Abril", "oneway": "yes", "surface": "concrete"}}, {"type": "way", "id": 176233416, "nodes": [1867781406, 279379938], "tags": {"highway": "residential", "lanes": "2", "name": "9 de Julio", "oneway": "yes", "surface": "asphalt"}}, {"type": "way", "id": 176233417, "nodes": [1867781408, 1867781406], "tags": {"bridge": "yes", "highway": "residential", "lanes": "2", "layer": "1", "name": "9 de Julio", "oneway": "yes", "surface": "asphalt"}}, {"type": "way", "id": 176411932, "nodes": [282814536, 353443257, 353443258, 282805756, 1869446622, 353443259, 2129924183, 353443261, 1869445761], "tags": {"highway": "residential", "lanes": "2", "name": "San Jos\u00e9 de Calazans", "oneway": "yes", "surface": "concrete"}}, {"type": "way", "id": 265120856, "nodes": [282810867, 353441049, 353449667], "tags": {"highway": "residential", "lanes": "2", "name": "De\u00e1n Funes", "oneway": "yes", "source": "Comercio y Justicia", "surface": "asphalt"}}, {"type": "way", "id": 265120859, "nodes": [442081674, 432597092, 432597093, 282816350], "tags": {"highway": "residential", "lanes": "2", "name": "Mariano Frague\u00edro", "oneway": "yes", "surface": "asphalt"}}, {"type": "way", "id": 311670637, "nodes": [428468011, 1277102759, 1183721254, 1162523384, 1183720662, 442081674], "tags": {"highway": "secondary", "lanes": "6", "maxspeed": "40", "motorcar:lanes:conditional": "|||no|no|no @ (Mo-Fr 08:00-22:00, PH off)", "name": "Avenida Col\u00f3n", "oneway": "yes", "psv:lanes": "no|no|no|designated|designated|designated", "source": "Comercio y Justicia", "surface": "asphalt", "trolley_wire": "yes"}}, {"type": "way", "id": 317539865, "nodes": [282809655, 1862498006, 1862498007, 353449667], "tags": {"highway": "primary", "lanes": "2", "name": "Avenida Figueroa Alcorta", "oneway": "yes", "surface": "concrete"}}, {"type": "way", "id": 317539870, "nodes": [282813659, 428507407, 352932995, 282814536, 428468007, 282810867], "tags": {"highway": "residential", "name": "De\u00e1n Funes", "oneway": "yes", "source": "Comercio y Justicia", "surface": "asphalt"}}]}